STARLINK-35232          
1 65518U 25198AC  26068.75553993 -.00027667  00000+0 -92589-3 0  9993
2 65518  53.1592 270.4379 0000993  36.0467 324.0601 15.30185254 28630
KUIPER-00175            
1 67135U 25301C   26068.97960463  .00019968  00000+0  66732-3 0  9998
2 67135  51.8781  63.6978 0002279  50.5695 309.5490 15.30996371 13854
